<?xml version="1.0" encoding="UTF-8"?>
<kml xmlns="http://www.opengis.net/kml/2.2">
  <Document>
    <name>Demo data</name>
    <Placemark>
      <name>Demo data</name>
      <Style>
        <LineStyle>
          <color>ff2a6aef</color>
          <width>3</width>
        </LineStyle>
      </Style>
      <LineString>
        <tessellate>1</tessellate>
        <altitudeMode>absolute</altitudeMode>
        <coordinates>-71.81199933333333,-38.699006000000004,1389.6 -71.81199933280836,-38.6990060002875,1389.6 -71.8119993119971,-38.69900601175909,1389.6 -71.81199913344354,-38.69900611238851,1389.6 -71.81199844757609,-38.69900648818596,1389.6 -71.81199660485602,-38.6990074952867,1389.6 -71.81199283380258,-38.699009550875324,1389.6 -71.8119865455823,-38.69901300479036,1389.6 -71.81197769251611,-38.69901787869085,1389.57 -71.8119667610816,-38.69902390550315,1389.53 -71.8119545516828,-38.69903069660635,1389.49 -71.81194197224865,-38.69903763034272,1389.48 -71.81192781057364,-38.69904542677911,1389.44 -71.81191443810232,-38.69905267162154,1389.41 -71.81190206154264,-38.69905935648785,1389.39 -71.811890934935,-38.69906538131688,1389.35 -71.81188081882534,-38.699070846402364,1389.28 -71.81187155008779,-38.699075726098016,1389.23 -71.81186282727828,-38.699080196500326,1389.22 -71.81185267816129,-38.69908538242619,1389.19 -71.8118435686567,-38.699090031795556,1389.13 -71.8118354461775,-38.69909408491253,1389.04 -71.81182778784489,-38.69909786858038,1388.96 -71.81181860561212,-38.69910227144998,1388.93 -71.8118101024393,-38.699106195300885,1388.88 -71.81180185229857,-38.69910995067155,1388.87 -71.81179408775898,-38.69911334251593,1388.86 -71.81178672295111,-38.699116486655946,1388.87 -71.81177963190447,-38.699119532161134,1388.87 -71.81177265704753,-38.69912246672019,1388.88 -71.81176580388602,-38.699125279076775,1388.89 -71.81175879746642,-38.69912805273568,1388.96 -71.81175192147784,-38.699130764234255,1389.02 -71.81174513942717,-38.69913343899682,1389.05 -71.81173832692414,-38.69913619106406,1389.09 -71.8117314733112,-38.6991389280263,1389.13 -71.81172452519564,-38.69914170957954,1389.19 -71.81171743983955,-38.699144584953636,1389.27 -71.81171037128499,-38.69914750014562,1389.33 -71.81170331198689,-38.699150454088205,1389.35 -71.81169611548545,-38.69915349144687,1389.4 -71.81168879922959,-38.699156601964766,1389.4 -71.81168128689629,-38.69915977536959,1389.4 -71.81167398435977,-38.699162908099005,1389.37 -71.81166658114941,-38.69916605237461,1389.34 -71.81165923335286,-38.69916915931371,1389.31 -71.81165179316466,-38.699172140757526,1389.29 -71.81164432228233,-38.69917511030465,1389.27 -71.81163668679555,-38.69917802512298,1389.27 -71.81162886774865,-38.69918094267428,1389.31 -71.81162099189537,-38.699183818330546,1389.34 -71.81161288742226,-38.69918670775451,1389.39 -71.81160455005647,-38.69918956457828,1389.49 -71.81159607251489,-38.699192396011725,1389.6 -71.8115875353456,-38.699195114733804,1389.72 -71.81157905394493,-38.69919783453401,1389.85 -71.81157077175895,-38.69920051227098,1389.94 -71.8115626200899,-38.69920315791556,1390.02 -71.81155449001245,-38.69920578009851,1390.11 -71.81154642754747,-38.69920838614059,1390.17 -71.81153837718843,-38.69921102893978,1390.21 -71.8115280435776,-38.6992144551666,1390.27 -71.81151789309041,-38.6992178416899,1390.34 -71.81150793217633,-38.6992211848605,1390.45 -71.81149820593224,-38.69922443661427,1390.59 -71.81148855871558,-38.69922760492529,1390.73 -71.81147899354823,-38.699230792340224,1390.89 -71.81146974395317,-38.69923371252199,1391.01 -71.81146081666937,-38.69923645190928,1391.14 -71.81145207091465,-38.69923904090902,1391.23 -71.8114435699602,-38.69924146084633,1391.29 -71.81143517729987,-38.69924374454591,1391.36 -71.81142682151476,-38.69924596830183,1391.44 -71.81141848851834,-38.6992481038579,1391.52 -71.81141016690053,-38.699250174007986,1391.57 -71.81140175402723,-38.69925224502486,1391.64 -71.81139316412414,-38.69925437262403,1391.74 -71.8113845611995,-38.69925646217112,1391.84 -71.81137585260753,-38.69925861935006,1391.94 -71.8113672415172,-38.69926069896007,1392.02 -71.81135871357134,-38.69926271733262,1392.1 -71.81135025505978,-38.699264688905366,1392.16 -71.81134180641727,-38.69926671982475,1392.25 -71.81133322297391,-38.6992687591642,1392.35 -71.81132457026787,-38.69927080927276,1392.45 -71.81131581225863,-38.6992728247283,1392.58 -71.81130696646608,-38.699274813525086,1392.68 -71.81129795550783,-38.69927687625299,1392.81 -71.81128885566821,-38.69927895729027,1392.96 -71.8112796396887,-38.69928105510326,1393.1 -71.81127037890448,-38.69928312113437,1393.27 -71.81126108761435,-38.6992852077335,1393.42 -71.81125177765645,-38.69928721898,1393.59 -71.81124245860286,-38.69928921406465,1393.75 -71.81123304434725,-38.69929119713695,1393.92 -71.81122364898685,-38.699293124923145,1394.08 -71.81121432263117,-38.69929505457245,1394.22 -71.81120505962635,-38.6992968944316,1394.39 -71.81119585351027,-38.69929866059071,1394.53 -71.81118407557719,-38.69930097638414,1394.72 -71.81117261270789,-38.69930315055733,1394.92 -71.81116154914493,-38.6993053408065,1395.1 -71.81115089928154,-38.69930740189828,1395.28 -71.81114057175058,-38.6993093051123,1395.45 -71.8111305275145,-38.69931116895019,1395.6 -71.81112082094548,-38.69931290840853,1395.76 -71.81111130560392,-38.69931459261038,1395.9 -71.81110194652175,-38.69931628136896,1396.06 -71.81109271191274,-38.699317978583416,1396.2 -71.8110835734931,-38.69931968689932,1396.36 -71.81107450660151,-38.6993214079254,1396.5 -71.81106553698272,-38.69932309561401,1396.65 -71.81105673327238,-38.69932466380444,1396.79 -71.81104815302362,-38.69932608694002,1396.89 -71.8110397497988,-38.69932739182406,1396.98 -71.81103152926356,-38.69932860276812,1397.07 -71.81102326103773,-38.69932978817994,1397.15 -71.81101507769311,-38.69933091266343,1397.24 -71.8110069063054,-38.69933199268317,1397.32 -71.81099620429754,-38.69933341674587,1397.43 -71.81098574634552,-38.69933480978741,1397.54 -71.81097547618093,-38.69933617737111,1397.67 -71.8109629044947,-38.69933785230716,1397.82 -71.81095093758664,-38.699339413032604,1397.99 -71.8109395296076,-38.69934087397903,1398.15 -71.8109286265847,-38.69934234312826,1398.32 -71.81091807665791,-38.69934377271339,1398.48 -71.8109079756083,-38.69934507549394,1398.65 -71.81089816331802,-38.69934636580977,1398.81 -71.81088859112089,-38.69934764822345,1398.98 -71.8108792608123,-38.699348926448764,1399.13 -71.81087007749547,-38.69935015661176,1399.3 -71.81086105238045,-38.69935139515837,1399.45 -71.81085219421152,-38.699352549678714,1399.62 -71.81084332229499,-38.69935368231132,1399.76 -71.81083451762854,-38.69935475280767,1399.93 -71.81082327547038,-38.69935605492992,1400.1 -71.8108124483901,-38.699357274978546,1400.26 -71.8108020912925,-38.699358378697816,1400.42 -71.81079200672545,-38.69935938533595,1400.57 -71.81078229993066,-38.69936040641194,1400.71 -71.81077019853247,-38.69936167752218,1400.89 -71.8107587442937,-38.69936283469338,1401.05 -71.81074777527742,-38.69936398836682,1401.22 -71.81073723462326,-38.699365093035915,1401.4 -71.81072711141128,-38.69936611031082,1401.59 -71.81071486047966,-38.69936747668868,1401.82 -71.81070333998952,-38.69936871843702,1402.01 -71.81069251025876,-38.69936985205385,1402.18 -71.81068236999212,-38.699370940549805,1402.34 -71.81067276538838,-38.69937189832176,1402.47 -71.81066350929964,-38.69937279426102,1402.62 -71.81065462424665,-38.699373641415605,1402.75 -71.81064603225872,-38.69937440449662,1402.87 -71.81063541707485,-38.699375334947845,1403 -71.81062531970804,-38.69937622406959,1403.13 -71.8106158086115,-38.69937703328012,1403.24 -71.81060674511464,-38.69937777730193,1403.32 -71.81059814380922,-38.69937851631592,1403.39 -71.8105873893608,-38.69937948892508,1403.5 -71.81057718849024,-38.69938047445024,1403.6 -71.81056737613521,-38.69938142339545,1403.69 -71.81055803689462,-38.69938238756996,1403.81 -71.81054904819847,-38.69938336446873,1403.9 -71.8105402996894,-38.699384258123715,1404.02 -71.81053178768644,-38.69938522160188,1404.13 -71.81052350698944,-38.69938615113257,1404.23 -71.81051535779571,-38.69938709855119,1404.34 -71.8105073013362,-38.69938806128011,1404.44 -71.81049944562238,-38.699389036844565,1404.54 -71.81049155473539,-38.699390022933265,1404.67 -71.81048370981824,-38.69939101743842,1404.79 -71.81047359425332,-38.69939225257342,1404.93 -71.81046389204715,-38.699393408960326,1405.07 -71.81045231324562,-38.69939486931762,1405.23 -71.81044150723876,-38.699396161971805,1405.37 -71.8104313928028,-38.699397353287736,1405.48 -71.81042179105455,-38.69939840896202,1405.58 -71.81041267822435,-38.69939944251548,1405.68 -71.81040402520277,-38.699400411409734,1405.78 -71.81039575304723,-38.699401373673886,1405.9 -71.8103878358414,-38.69940233225069,1406.02 -71.81037800020262,-38.699403570399944,1406.13 -71.81036868115945,-38.69940471802124,1406.26 -71.81035976210062,-38.699405786486246,1406.39 -71.81035127590019,-38.699406787116104,1406.52 -71.81034310342604,-38.69940773080073,1406.63 -71.81033527864766,-38.69940858090786,1406.74 -71.81032773303517,-38.699409400923,1406.85 -71.81032049887234,-38.699410198716876,1406.95 -71.81031360125519,-38.69941093417535,1407.05 -71.81030701217098,-38.699411667074266,1407.15 -71.81030056511972,-38.69941235471283,1407.25 -71.81029444581443,-38.69941300750509,1407.35 -71.81028857771254,-38.69941363451152,1407.44 -71.81028148982372,-38.69941433709536,1407.56 -71.81027498523854,-38.699414966522895,1407.68 -71.8102690604591,-38.699415583128065,1407.8 -71.81026356383225,-38.69941609816831,1407.88 -71.81025836038192,-38.69941662397465,1407.97 -71.81025337921008,-38.69941720960748,1408.05 -71.81024851233427,-38.69941775530305,1408.17 -71.81024376223587,-38.69941836294414,1408.28 -71.81023908569911,-38.699418931480956,1408.39 -71.81023444759252,-38.69941951497908,1408.5 -71.81022986691772,-38.69942015946253,1408.61 -71.8102239572248,-38.69942095011405,1408.77 -71.81021831400041,-38.69942177037018,1408.92 -71.81021280613302,-38.69942247294015,1409.06 -71.81020745896835,-38.699423214429956,1409.16 -71.81020229181946,-38.69942384799105,1409.26 -71.81019727196238,-38.699424483405,1409.36 -71.81019236961393,-38.69942512130104,1409.46 -71.8101873241476,-38.69942571524839,1409.58 -71.81018228967986,-38.69942631962274,1409.7 -71.81017721209295,-38.699426934020465,1409.84 -71.81017209312033,-38.69942755778923,1409.98 -71.81016688868706,-38.69942814329292,1410.1 -71.81016156274858,-38.69942869698234,1410.22 -71.81015618020332,-38.69942922482509,1410.34 -71.81015084454573,-38.699429732217254,1410.45 -71.81014550328277,-38.69943022393674,1410.55 -71.81014015806979,-38.69943070412948,1410.65 -71.81013476347286,-38.699431176321085,1410.75 -71.810129327989,-38.69943164344705,1410.85 -71.81012226760052,-38.69943224835286,1410.95 -71.81011538475053,-38.69943278356489,1411.02 -71.81010877160651,-38.69943330604849,1411.09 -71.81010226576089,-38.69943377133748,1411.16 -71.810095957792,-38.699434329386314,1411.24 -71.81008982704563,-38.699434873281504,1411.33 -71.81008375815973,-38.699435404983014,1411.41 -71.81007779090466,-38.69943597321069,1411.5 -71.81007027203783,-38.69943666602887,1411.59 -71.81006308394284,-38.69943736979562,1411.69 -71.81005615120759,-38.6994379868893,1411.78 -71.81004940232876,-38.69943857561166,1411.88 -71.8100428648705,-38.69943913986604,1411.95 -71.81003660487572,-38.699439730263485,1412.03 -71.81003048679331,-38.699440296197835,1412.11 -71.81002284691391,-38.69944102867731,1412.22 -71.81001565233348,-38.69944176132328,1412.34 -71.81000721361568,-38.69944258544117,1412.45 -71.80999932836346,-38.6994433441635,1412.53 -71.80999189055262,-38.69944404460447,1412.62 -71.80998489257088,-38.69944469415093,1412.7 -71.80997827237447,-38.69944534695762,1412.8 -71.80997192325474,-38.69944595588434,1412.89 -71.8099658432085,-38.699446574769674,1412.99 -71.80995993353142,-38.69944720282135,1413.05 -71.80995256308972,-38.69944797958053,1413.16 -71.80994553992828,-38.699448694703236,1413.23 -71.80993877305474,-38.6994494027113,1413.31 -71.80993231964561,-38.69945001028269,1413.4 -71.80992608303472,-38.69945062625714,1413.49 -71.80992007067405,-38.69945115668862,1413.55 -71.80991419254343,-38.69945166261036,1413.62 -71.80990841715324,-38.6994521030317,1413.7 -71.809902764017,-38.69945253717769,1413.75 -71.80989706211106,-38.699452922061354,1413.85 -71.80988985591493,-38.69945345529564,1413.94 -71.80988287063506,-38.69945397611253,1414.04 -71.80987608610312,-38.69945448684604,1414.14 -71.809869526963,-38.69945503642469,1414.22 -71.80986316293333,-38.699455572532855,1414.3 -71.8098569175926,-38.69945609723276,1414.38 -71.80985077024188,-38.69945665929404,1414.47 -71.80984479551273,-38.699457206332845,1414.57 -71.8098389147882,-38.69945769359495,1414.66 -71.80983310657166,-38.699458224088474,1414.73 -71.8098273521405,-38.69945869826186,1414.81 -71.8098215886945,-38.699459171907904,1414.89 -71.80981585705659,-38.699459692890606,1414.98 -71.80981019268323,-38.69946020779696,1415.07 -71.80980448529749,-38.69946076442409,1415.13 -71.80979878214504,-38.69946135632256,1415.21 -71.80979307766265,-38.69946193058684,1415.29 -71.80978732088396,-38.699462488979066,1415.37 -71.80978156305558,-38.69946308019769,1415.46 -71.80977570817588,-38.69946360514378,1415.56 -71.80976986294716,-38.6994642139348,1415.65 -71.80976402540662,-38.699464846908675,1415.75 -71.80975824062655,-38.69946549928207,1415.82 -71.80975245290121,-38.699466166775515,1415.9 -71.80974666137175,-38.699466845637986,1415.99 -71.8097409591607,-38.69946753264705,1416.08 -71.80973523766404,-38.699468318728485,1416.14 -71.80972949774561,-38.699469046464685,1416.21 -71.80972383433416,-38.699469862766996,1416.29 -71.80971818745108,-38.699470705392564,1416.37 -71.80971255234029,-38.6994716143572,1416.46 -71.80970692500769,-38.69947252967193,1416.53 -71.80970130217243,-38.69947349374523,1416.6 -71.80969568120508,-38.6994744958212,1416.68 -71.80969010687761,-38.699475526472064,1416.76 -71.80968457028932,-38.699476577598666,1416.85 -71.80967911023902,-38.699477548746806,1416.95 -71.80967366546608,-38.699478542669404,1417.02 -71.80966818347257,-38.69947955397081,1417.09 -71.80966121562193,-38.69948071843687,1417.2 -71.80965449166969,-38.69948186955686,1417.34 -71.80964794725962,-38.69948305218705,1417.48 -71.8096416154933,-38.69948416437789,1417.61 -71.8096354729076,-38.699485166967115,1417.74 -71.80962949524555,-38.69948616890847,1417.83 -71.80962365849426,-38.69948712347514,1417.92 -71.80961793965872,-38.69948808493861,1418.02 -71.8096124109477,-38.699489099758246,1418.11 -71.80960694449111,-38.699490113253184,1418.21 -71.80960157061686,-38.69949112528088,1418.31 -71.80959626794058,-38.69949213578483,1418.4 -71.80959101786974,-38.69949314477537,1418.47 -71.80958585138097,-38.69949419913175,1418.58 -71.80958070107259,-38.69949529158603,1418.68 -71.80957550978607,-38.69949641533643,1418.78 -71.80956887232101,-38.69949798553894,1418.89 -71.80956250876704,-38.69949960263077,1418.99 -71.80955644007717,-38.69950129782094,1419.09 -71.80955058395608,-38.699503004073335,1419.19 -71.80954491201673,-38.699504711501675,1419.29 -71.8095394901019,-38.69950636579376,1419.4 -71.80953413664356,-38.699508015703245,1419.5 -71.80952892912555,-38.69950970392175,1419.57 -71.80952383882651,-38.699511373450804,1419.65 -71.80951893366277,-38.6995130698228,1419.73 -71.80951412952076,-38.69951478539778,1419.81 -71.80950930687892,-38.69951656056864,1419.87 -71.80950455198177,-38.69951833586481,1419.94 -71.80949993906545,-38.69952010748286,1420.01 -71.80949534346011,-38.69952191950233,1420.07 -71.80949089310477,-38.69952376271723,1420.13 -71.80948641584843,-38.69952562910454,1420.2 -71.80948195276643,-38.69952746499275,1420.28 -71.80947763375569,-38.69952936565117,1420.36 -71.80947324136324,-38.69953127176552,1420.45 -71.80946887197886,-38.69953317946502,1420.54 -71.80946451540221,-38.699535085776766,1420.64 -71.80946016349924,-38.699537035326834,1420.74 -71.80945590361392,-38.6995389724038,1420.81 -71.80945162269254,-38.69954099011324,1420.89 -71.80944731830543,-38.699543026958935,1420.98 -71.80944308307389,-38.69954507695021,1421.04 -71.80943880871625,-38.69954708829578,1421.11 -71.8094345438473,-38.69954911114633,1421.19 -71.80943033057233,-38.69955114187594,1421.27 -71.8094260641705,-38.6995531306588,1421.33 -71.80942184324603,-38.699555176060734,1421.4 -71.80941765848739,-38.699557221535514,1421.5 -71.80941340798164,-38.699559312304814,1421.58 -71.80940919288783,-38.69956139303477,1421.67 -71.8094050061699,-38.699563557031055,1421.73 -71.80940088835742,-38.69956569603789,1421.8 -71.80939677975954,-38.69956785819861,1421.85 -71.80939267609111,-38.69956999115068,1421.91 -71.8093885271318,-38.699572097467524,1421.98 -71.8093843844473,-38.69957418001403,1422.03 -71.80938024565995,-38.699576288594244,1422.09 -71.80937615566104,-38.69957841881635,1422.13 -71.80937205874628,-38.69958047298033,1422.19 -71.80936795419584,-38.69958255577908,1422.23 -71.80936374809441,-38.69958456943801,1422.28 -71.8093595020544,-38.69958657153464,1422.35 -71.80935517605755,-38.69958856484261,1422.39 -71.809350783745,-38.699590551757964,1422.45 -71.8093463845217,-38.69959253430888,1422.53 -71.80934198237725,-38.69959446735689,1422.58 -71.80933753360162,-38.69959640644476,1422.62 -71.80933309471463,-38.699598352201,1422.67 -71.80932876058544,-38.69960030486778,1422.73 -71.80932447020939,-38.69960226438767,1422.78 -71.80932017029252,-38.699604277298285,1422.84 -71.80931586202311,-38.699606288976554,1422.92 -71.80931164022479,-38.699608346139186,1422.97 -71.80930749131258,-38.699610488210524,1423.04 -71.80930340251463,-38.6996127009297,1423.11 -71.8092994089345,-38.69961487745532,1423.17 -71.8092955395152,-38.699617067386015,1423.24 -71.80929163027491,-38.69961926661373,1423.29 -71.80928786935242,-38.699621518537775,1423.35 -71.80928413565796,-38.69962371937459,1423.43 -71.80928055948478,-38.69962601518291,1423.51 -71.80927701684936,-38.69962829603578,1423.6 -71.80927363564449,-38.69963060846835,1423.67 -71.80927028994134,-38.69963285179422,1423.75 -71.80926705927918,-38.699635175032654,1423.8 -71.80926387074032,-38.69963751783026,1423.84 -71.80926070892608,-38.69963973458647,1423.89 -71.80925756130058,-38.699641936652625,1423.93 -71.80925441792132,-38.699644079596894,1423.98 -71.80925122432714,-38.69964621982875,1424.04 -71.80924798223897,-38.699648358934006,1424.09 -71.80924464781936,-38.69965045132829,1424.15 -71.80924123226023,-38.69965259894016,1424.19 -71.80923779363509,-38.69965465416912,1424.25 -71.80923428867202,-38.6996567725089,1424.32 -71.80923072808656,-38.699658899070215,1424.4 -71.80922707506909,-38.69966108004077,1424.49 -71.80922334611273,-38.69966321367945,1424.58 -71.80921960310646,-38.69966540063531,1424.66 -71.80921580534142,-38.69966763286604,1424.77 -71.80921201188207,-38.699669855917946,1424.85 -71.80920822607176,-38.69967216373033,1424.94 -71.80920445016517,-38.69967444847315,1425 -71.80920068551795,-38.699676711725104,1425.08 -71.8091970263988,-38.699678955422605,1425.16 -71.80919322404804,-38.69968118170444,1425.22 -71.80918948835036,-38.69968343960661,1425.29 -71.80918571744455,-38.699685723964336,1425.36 -71.80918191783024,-38.69968798314663,1425.45 -71.80917809540401,-38.69969022013832,1425.51 -71.80917425540298,-38.69969248477897,1425.58 -71.80917044920427,-38.69969472582857,1425.66 -71.8091666733321,-38.699696946511615,1425.72 -71.80916283047533,-38.699699149966094,1425.78 -71.80915911894272,-38.69970138597472,1425.86 -71.80915542590097,-38.69970360308425,1425.94 -71.80915179453284,-38.699705804195524,1426 -71.8091481673986,-38.69970803886974,1426.07 -71.809144542083,-38.69971020863274,1426.15 -71.80914091670226,-38.69971241720676,1426.24 -71.8091373366575,-38.699714565732094,1426.3 -71.80913384038648,-38.699716757471464,1426.37 -71.80913036610517,-38.69971879942804,1426.43 -71.80912700114469,-38.699720855899294,1426.49 -71.80912367865959,-38.69972283350109,1426.53 -71.80912038781634,-38.69972474663956,1426.56 -71.80911707253067,-38.699726748869736,1426.61 -71.80911373240497,-38.6997287361197,1426.64 -71.80911041482109,-38.69973071252015,1426.68 -71.80910711368263,-38.699732681561656,1426.71 -71.80910373018507,-38.699734646131034,1426.76 -71.80910027476976,-38.699736561740814,1426.79 -71.80909685144299,-38.699738484405614,1426.85 -71.80909345543043,-38.69974032143656,1426.91 -71.80909003536566,-38.69974213481769,1426.96 -71.80908659439386,-38.69974402470196,1427.02 -71.8090829951553,-38.699745888230055,1427.07 -71.80907940315147,-38.69974773084182,1427.13 -71.8090757729776,-38.69974960418321,1427.17 -71.8090722532199,-38.6997515519067,1427.23 -71.80906864168252,-38.69975351648536,1427.28 -71.80906509371414,-38.699755448180944,1427.33 -71.80906141384351,-38.69975744531054,1427.4 -71.80905771706293,-38.69975945083427,1427.46 -71.80905405540011,-38.6997614624938,1427.52 -71.8090503790051,-38.69976347837365,1427.57 -71.80904673866148,-38.69976549688335,1427.64 -71.80904303673015,-38.69976756355158,1427.68 -71.80903942426629,-38.69976966999529,1427.74 -71.80903584211944,-38.699771808513866,1427.81 -71.80903223886,-38.69977392536963,1427.87 -71.80902875794023,-38.699776068656234,1427.93 -71.80902523969894,-38.6997782794977,1428.01 -71.80902178180729,-38.69978054551709,1428.07 -71.80901842055283,-38.69978280864931,1428.14 -71.80901504526501,-38.69978506625498,1428.19 -71.8090117018864,-38.699787363355334,1428.25 -71.80900838291032,-38.699789644666815,1428.3 -71.80900508183063,-38.69979186327599,1428.36 -71.80900174630247,-38.699794120664926,1428.4 -71.80899847273238,-38.69979636310522,1428.46 -71.80899506230429,-38.69979868528327,1428.53 -71.80899172129904,-38.69980098010664,1428.58 -71.80898834504258,-38.69980334349669,1428.64 -71.80898503155356,-38.69980571649879,1428.69 -71.8089817704786,-38.69980809536895,1428.75 -71.80897850537399,-38.6998105239,1428.79 -71.80897528168113,-38.69981294552934,1428.82 -71.80897209118558,-38.69981535888963,1428.87 -71.80896902018003,-38.699817763237334,1428.9 -71.80896586022642,-38.699820205143844,1428.95 -71.8089627618696,-38.69982263056139,1429.01 -71.80895966654234,-38.6998249467135,1429.06 -71.80895661784017,-38.69982730997668,1429.12 -71.80895355915719,-38.699829713501664,1429.17 -71.80895053601924,-38.699832103908186,1429.23 -71.80894749366036,-38.69983462290045,1429.3 -71.80894457295207,-38.699837062463764,1429.36 -71.80894161231178,-38.69983957313159,1429.45 -71.80893870805286,-38.699841908722256,1429.55 -71.80893575512046,-38.69984432898866,1429.66 -71.80893294535005,-38.69984672800438,1429.77 -71.8089300669798,-38.699849155538836,1429.88 -71.8089273141613,-38.6998516070878,1429.97 -71.80892447749015,-38.699854125240854,1430.06 -71.80892165978698,-38.699856698758836,1430.15 -71.80891876220151,-38.69985931724672,1430.22 -71.80891588869244,-38.699862018125735,1430.29 -71.80891294108996,-38.69986473889357,1430.38 -71.80891002366465,-38.69986756641283,1430.44 -71.80890703826998,-38.69987048039307,1430.5 -71.80890413580028,-38.69987341571742,1430.55 -71.8089012103921,-38.69987636358925,1430.61 -71.80889831192094,-38.69987931694174,1430.65 -71.8088954360175,-38.699882270257504,1430.68 -71.80889253178546,-38.699885172559796,1430.72 -71.80888955605405,-38.699888028223945,1430.74 -71.80888656661324,-38.69989084216783,1430.79 -71.80888356647132,-38.69989357272864,1430.82 -71.80888051144878,-38.69989623242683,1430.84 -71.80887741117907,-38.699898926799335,1430.87 -71.80887436813327,-38.699901558498034,1430.9 -71.80887123505013,-38.69990409155956,1430.94 -71.80886812077875,-38.69990663696831,1431 -71.8088649778376,-38.69990914907685,1431.05 -71.80886181246076,-38.69991172930047,1431.11 -71.80885877058348,-38.69991427602273,1431.12 -71.80885564755717,-38.69991693632525,1431.16 -71.80885254969351,-38.699919647224796,1431.21 -71.80884942737764,-38.699922400517174,1431.25 -71.80884619145124,-38.69992518854567,1431.34 -71.80884300116917,-38.699927957513275,1431.4 -71.80883985190279,-38.69993075537858,1431.48 -71.80883659828186,-38.699933669897014,1431.57 -71.80883344471596,-38.699936540650526,1431.64 -71.80883033087555,-38.69993941814453,1431.69 -71.80882725093441,-38.69994229918596,1431.75 -71.80882410568552,-38.69994518124465,1431.82 -71.80882095149354,-38.69994810919689,1431.9 -71.8088177901269,-38.69995102742763,1431.99 -71.80881452953,-38.699953935381764,1432.09 -71.80881123263647,-38.699956879816625,1432.19 -71.80880804757318,-38.69995976004313,1432.3 -71.80880491220557,-38.69996263127056,1432.37 -71.80880172536274,-38.69996549439833,1432.43 -71.80879854144851,-38.6999683035668,1432.5 -71.8087953603409,-38.69997111392988,1432.54 -71.80879218185046,-38.699973972810106,1432.6 -71.80878891210574,-38.69997682634537,1432.67 -71.80878565921337,-38.69997967514992,1432.72 -71.8087823752002,-38.699982566669995,1432.78 -71.80877906601482,-38.699985447338186,1432.85 -71.80877592429127,-38.69998808408762,1432.9 -71.80877278484456,-38.69999070212925,1432.91 -71.80876959934994,-38.69999335457625,1432.94 -71.80876637400941,-38.69999603924057,1432.98 -71.80876311488193,-38.69999880017283,1433.01 -71.8087597808893,-38.700001580080745,1433.06 -71.80875647833471,-38.70000437614821,1433.12 -71.80875325101677,-38.70000723251011,1433.16 -71.80874994785118,-38.70001004567349,1433.22 -71.8087465806746,-38.70001296164218,1433.27 -71.80874320745158,-38.700015776537995,1433.33 -71.80873983105604,-38.70001859794528,1433.4 -71.8087364069456,-38.70002142467521,1433.45 -71.80873299105023,-38.700024208827834,1433.52 -71.80872953739592,-38.70002705044268,1433.57 -71.8087261004877,-38.700029940873996,1433.63 -71.80872263298107,-38.70003277827133,1433.71 -71.80871918809936,-38.70003571021823,1433.79 -71.80871585778442,-38.70003862795184,1433.86 -71.8087125316654,-38.70004157885903,1433.93 -71.80870920845881,-38.70004455647791,1434.01 -71.80870579345813,-38.70004755500977,1434.1 -71.80870239415933,-38.700050709813866,1434.2 -71.80869886853104,-38.700053807131084,1434.33 -71.80869551790077,-38.70005694558371,1434.43 -71.80869227033305,-38.7000600692058,1434.53 -71.80868920269108,-38.700063224174016,1434.63 -71.80868628460544,-38.700066309539906,1434.71 -71.80868353480811,-38.70006938050454,1434.76 -71.80868087372545,-38.700072391329826,1434.8 -71.80867827932335,-38.70007535065704,1434.85 -71.80867587313315,-38.70007826678854,1434.88 -71.80867347668172,-38.700081100664036,1434.87 -71.80867121864392,-38.70008381990777,1434.88 -71.80866897447989,-38.700086445126175,1434.88 -71.80866668507026,-38.70008908875593,1434.9 -71.80866439527097,-38.70009170603376,1434.92 -71.80866195742114,-38.70009439880013,1434.95 -71.8086594820834,-38.70009720595978,1435 -71.80865697184201,-38.700100111836186,1435.04 -71.80865442985724,-38.70010305436491,1435.1 -71.80865195325153,-38.70010597969973,1435.17 -71.80864943726746,-38.700108982516205,1435.25 -71.80864679272852,-38.70011195579211,1435.32 -71.808644085757,-38.70011494875871,1435.39 -71.80864137415331,-38.70011795681272,1435.48 -71.8086385669806,-38.70012097596015,1435.54 -71.80863577470762,-38.70012395598609,1435.62 -71.80863281075284,-38.70012685460826,1435.7 -71.80862998546692,-38.70012968381139,1435.77 -71.80862709452114,-38.70013245504065,1435.84 -71.80862410347372,-38.70013522575585,1435.92 -71.80862117132573,-38.7001379982582,1436.01 -71.80861805870242,-38.70014082103925,1436.11 -71.80861493703752,-38.70014368787581,1436.21 -71.8086117659633,-38.70014659254673,1436.28 -71.80860865143448,-38.70014943541065,1436.36 -71.80860544883939,-38.700152366021065,1436.45 -71.80860226895595,-38.70015532415524,1436.54 -71.80859897198337,-38.70015835131012,1436.64 -71.80859572015295,-38.70016138852009,1436.74 -71.80859251109723,-38.700164291560746,1436.81 -71.80858934154602,-38.70016726674091,1436.89 -71.8085862076623,-38.70017020931329,1436.98 -71.80858310531492,-38.70017312351164,1437.07 -71.80858007711348,-38.700176060331756,1437.16 -71.80857701793414,-38.70017906321759,1437.26 -71.80857402530809,-38.70018212159273,1437.35 -71.8085710415641,-38.70018508510073,1437.43 -71.80856811076988,-38.70018806042519,1437.51 -71.80856517645589,-38.70019095187624,1437.56 -71.80856233084519,-38.70019381911455,1437.62 -71.80855951149609,-38.70019666692346,1437.7 -71.80855657100099,-38.700199405945625,1437.78 -71.80855371281692,-38.70020210148056,1437.83 -71.80855078287463,-38.70020495050721,1437.9 -71.80854788425651,-38.70020774478217,1437.95 -71.80854496469942,-38.70021058699055,1438 -71.80854197974558,-38.700213470811846,1438.07 -71.80853893918395,-38.700216390036374,1438.12 -71.80853603960043,-38.700219104659126,1438.18 -71.80853311970881,-38.70022183329553,1438.23 -71.80853004126985,-38.700224622950564,1438.28 -71.80852692231282,-38.70022751272637,1438.35 -71.80852381797465,-38.70023044077203,1438.4 -71.80852063464214,-38.700233400165,1438.49 -71.808517433372,-38.70023633777939,1438.56 -71.80851431341978,-38.70023920853626,1438.63 -71.80851145199586,-38.700241834531404,1438.66 -71.8085085754883,-38.700244347918975,1438.68 -71.80850573014062,-38.70024686380591,1438.71 -71.80850290869898,-38.700249339994414,1438.74 -71.80850005804619,-38.700251880722405,1438.75 -71.8084972270058,-38.70025448026316,1438.78 -71.8084942702132,-38.700257272714005,1438.83 -71.80849134600643,-38.70026004209216,1438.89 -71.80848844951936,-38.700262884148515,1438.94 -71.80848552930215,-38.70026569283824,1438.98 -71.80848268206384,-38.70026851826226,1439.03 -71.80847989610925,-38.70027121611882,1439.07 -71.80847716049401,-38.70027380515351,1439.09 -71.80847446521989,-38.70027639691412,1439.11 -71.80847175453012,-38.7002790401499,1439.15 -71.80846902796051,-38.70028168197147,1439.17 -71.80846619207483,-38.70028432358982,1439.22 -71.8084633559351,-38.70028715320052,1439.28 -71.80846037924461,-38.70029000155986,1439.33 -71.80845742467561,-38.70029295716817,1439.39 -71.80845435053583,-38.70029586049557,1439.44 -71.8084513645358,-38.7002986693749,1439.47 -71.80844845606704,-38.700301489968545,1439.5 -71.80844561444012,-38.70030422619723,1439.51 -71.80844287609472,-38.70030693744523,1439.52 -71.80844022388203,-38.70030962831412,1439.49 -71.8084375482459,-38.70031230298041,1439.46 -71.80843489629507,-38.700315011974006,1439.44 -71.80843230850641,-38.70031761070554,1439.41 -71.80842972531411,-38.70032021074062,1439.39 -71.80842704904983,-38.700322814072365,1439.37 -71.80842433820229,-38.700325515726576,1439.35 -71.80842159703157,-38.70032816140232,1439.37 -71.80841878298314,-38.70033080664036,1439.38 -71.80841600117824,-38.70033349911155,1439.39 -71.80841315403984,-38.70033623207983,1439.39 -71.80841034598113,-38.70033890542321,1439.4 -71.80840747865386,-38.700341621438184,1439.4 -71.80840456204146,-38.700344326875125,1439.41 -71.80840160538118,-38.7003469761728,1439.41 -71.8083984297514,-38.7003497652425,1439.41 -71.80839516564362,-38.70035253233138,1439.44 -71.80839187925447,-38.7003552793632,1439.46 -71.80838858022716,-38.70035800848471,1439.48 -71.80838508899411,-38.70036067511723,1439.5 -71.8083815346304,-38.70036342931432,1439.54 -71.8083779813847,-38.700366258055446,1439.57 -71.8083742961624,-38.70036910211777,1439.62 -71.80837059994816,-38.70037181690012,1439.69 -71.80836676180563,-38.7003746082575,1439.78 -71.80836299832981,-38.70037727730864,1439.87 -71.80835916562063,-38.700379889323195,1439.98 -71.80835556161404,-38.700382173539076,1440.06 -71.80835206313394,-38.70038432387689,1440.16 -71.80834865572488,-38.700386461712064,1440.23 -71.80834537214628,-38.700388456455286,1440.31 -71.80834223858031,-38.700390244090144,1440.37 -71.80833927534188,-38.700391865614215,1440.41 -71.80833635716084,-38.700393544976606,1440.47 -71.80833337646547,-38.70039542531875,1440.51 -71.80833043003686,-38.70039734401413,1440.54 -71.80832746075966,-38.70039939387037,1440.55 -71.8083244205848,-38.700401417774046,1440.59 -71.80832136360398,-38.700403514921945,1440.61 -71.80831814968856,-38.70040562866606,1440.65 -71.80831494220651,-38.7004077099397,1440.68 -71.80831164735369,-38.70040990437075,1440.76 -71.80830823269598,-38.700412101075926,1440.81 -71.80830476579433,-38.70041429845216,1440.89 -71.80830135199875,-38.70041649526774,1440.97 -71.80829793999898,-38.700418643794734,1441.06 -71.80829453208491,-38.700420844400654,1441.13 -71.80829103620303,-38.700422995236174,1441.21 -71.80828751489736,-38.7004251033156,1441.33 -71.80828392834785,-38.70042717541134,1441.45 -71.80828028983414,-38.70042917105929,1441.56 -71.80827656435237,-38.700431150261586,1441.74 -71.80827286320495,-38.70043316460808,1441.88 -71.80826904693006,-38.70043525755566,1442.01 -71.80826518430864,-38.70043732446451,1442.19 -71.80826138140542,-38.70043946305909,1442.34 -71.80825749358152,-38.700441615635675,1442.5 -71.80825363148514,-38.700443732422535,1442.65 -71.80824970193184,-38.700445771355746,1442.82 -71.80824581271973,-38.70044760400466,1443.03 -71.80824200846514,-38.700449497907044,1443.19 -71.80823823200039,-38.700451260180465,1443.36 -71.80823443347833,-38.70045291412142,1443.55 -71.80823057030126,-38.700454715148,1443.71 -71.80822674727233,-38.70045650507978,1443.89 -71.80822286630018,-38.70045833497432,1444.05 -71.80821898433473,-38.700460294538836,1444.19 -71.80821500967161,-38.70046231801231,1444.32 -71.8082110521013,-38.700464347815405,1444.47 -71.80820706491153,-38.700466381354836,1444.6 -71.80820319540597,-38.70046827608926,1444.72 -71.80819933380735,-38.700470239757195,1444.83 -71.80819543233186,-38.70047221561933,1444.96 -71.80819159101267,-38.70047424833083,1445.09 -71.80818770746797,-38.70047623491058,1445.2 -71.80818383486753,-38.70047818139341,1445.33 -71.80818001869967,-38.700480046902065,1445.46 -71.80817615662576,-38.70048198492227,1445.58 -71.80817234879497,-38.700483938724574,1445.69 -71.80816849311815,-38.70048590602807,1445.79 -71.80816464318094,-38.70048788464449,1445.92 -71.80816079814699,-38.700489919350304,1446.01 -71.80815691039662,-38.70049190728223,1446.1 -71.80815298654764,-38.70049399504295,1446.19 -71.80814903284231,-38.700496072946834,1446.28 -71.80814510184194,-38.70049818753387,1446.37 -71.80814109771099,-38.7005002379441,1446.46 -71.80813712644617,-38.7005023260758,1446.55 -71.80813309110877,-38.70050439855106,1446.64 -71.80812909654935,-38.70050645670727,1446.76 -71.80812504469039,-38.70050854886875,1446.85 -71.80812099246991,-38.700510528794695,1446.94 -71.80811703542828,-38.70051236641765,1447.05 -71.8081131602184,-38.70051413186399,1447.17 -71.80810926029923,-38.700515839471954,1447.28 -71.80810543191595,-38.700517548877514,1447.39 -71.80810156943598,-38.7005192171231,1447.5 -71.80809777011524,-38.70052085428683,1447.64 -71.80809402301189,-38.70052251586409,1447.76 -71.80809027124539,-38.70052420180956,1447.89 -71.80808655994991,-38.700525911242806,1448 -71.80808283389312,-38.70052754904662,1448.12 -71.80807913980233,-38.700529128069256,1448.23 -71.80807542394149,-38.70053075367517,1448.33 -71.80807178122818,-38.70053246842936,1448.41 -71.8080681049731,-38.700534260291214,1448.48 -71.80806439797853,-38.700536023868644,1448.56 -71.80806066342441,-38.70053776275922,1448.65 -71.80805681102719,-38.70053971462673,1448.71 -71.80805304615934,-38.70054147152442,1448.8 -71.80804916919547,-38.700543295047204,1448.89 -71.8080453849464,-38.70054498764628,1448.99 -71.8080416804589,-38.7005467095328,1449.11 -71.80803790274184,-38.700548363729276,1449.21 -71.80803410892244,-38.700550148820476,1449.3 -71.80803039523038,-38.70055181173937,1449.4 -71.80802665572303,-38.70055355839232,1449.5 -71.80802303395397,-38.70055523650708,1449.59 -71.80801927686042,-38.70055699722765,1449.67 -71.80801559080871,-38.70055868807099,1449.77 -71.80801196477086,-38.70056027279307,1449.87 -71.80800834153064,-38.70056190924553,1449.98 -71.80800490616677,-38.70056345107391,1450.08 -71.8080014402712,-38.70056496115128,1450.18 -71.80799799120663,-38.700566353306435,1450.29 -71.80799469351736,-38.700567789195716,1450.39 -71.80799142663776,-38.70056931288606,1450.46 -71.80798827431292,-38.7005709603347,1450.51 -71.80798511999353,-38.70057266649914,1450.57 -71.8079818643158,-38.70057432770309,1450.61 -71.80797861159716,-38.7005760898734,1450.66 -71.80797526467164,-38.70057779595658,1450.72 -71.80797188244613,-38.700579546241165,1450.76 -71.80796846952073,-38.700581239091846,1450.82 -71.80796507724818,-38.70058292876934,1450.85 -71.80796174940988,-38.7005846152557,1450.9 -71.80795833528373,-38.700586205010396,1450.96 -71.80795494097976,-38.7005877597609,1451.04 -71.80795165737334,-38.700589239404366,1451.09 -71.8079483266051,-38.70059070416868,1451.16 -71.80794504804612,-38.700592065302736,1451.23 -71.8079418127292,-38.70059338838393,1451.29 -71.8079387060308,-38.700594636317426,1451.38 -71.8079355185051,-38.700595871600015,1451.45 -71.80793239965533,-38.70059705393245,1451.54 -71.80792933670207,-38.700598289443995,1451.62 -71.80792631807078,-38.70059938695256,1451.72 -71.80792328667823,-38.70060051171452,1451.79 -71.80792033460591,-38.700601570626176,1451.86 -71.80791754008791,-38.7006026246718,1451.92 -71.80791482774625,-38.70060363214166,1451.96 -71.80791231939334,-38.70060455742364,1451.98 -71.80790997667677,-38.70060537073893,1452.02 -71.80790771811458,-38.70060604774011,1452.05 -71.80790556721145,-38.70060656901962,1452.09 -71.80790354373487,-38.70060701320541,1452.15 -71.80790180440533,-38.70060740121514,1452.19 -71.80790034018904,-38.7006077975867,1452.22 -71.8078991405099,-38.700608209648614,1452.23 -71.80789810035874,-38.70060845510471,1452.27 -71.8078972228874,-38.7006086132652,1452.32 -71.80789632333463,-38.70060870591632,1452.39 -71.8078955267403,-38.700608845393766,1452.44 -71.80789484751247,-38.70060889223348,1452.48 -71.80789429822433,-38.700608914433644,1452.5 -71.80789379599139,-38.700609016715134,1452.49 -71.8078933177306,-38.700609099537736,1452.47 -71.80789289202798,-38.70060912378483,1452.48 -71.80789240393827,-38.700609103034715,1452.49 -71.80789185104204,-38.700609142723465,1452.49 -71.80789123376618,-38.700609238169946,1452.49 -71.80789046103051,-38.700609383909054,1452.48 -71.80788964527561,-38.70060957407449,1452.47 -71.80788869705567,-38.70060980270127,1452.47 -71.80788768242584,-38.70061006395717,1452.49 -71.8078865656362,-38.70061039913149,1452.5 -71.80788541113543,-38.700610748931986,1452.51 -71.80788422778492,-38.70061110918604,1452.55 -71.80788302326647,-38.70061152320413,1452.58 -71.80788180410585,-38.70061184027973,1452.6 -71.80788057573078,-38.70061226054247,1452.65 -71.8078794361906,-38.70061262668994,1452.68 -71.80787842106874,-38.700613038754504,1452.71 -71.8078773713801,-38.70061353530492,1452.73 -71.80787629157197,-38.70061396099332,1452.75 -71.80787527968059,-38.70061441790709,1452.78 -71.80787427836816,-38.70061489985537,1452.81 -71.80787323825697,-38.70061544812087,1452.83 -71.80787211768464,-38.70061600367038,1452.88 -71.80787102270827,-38.70061660960042,1452.91 -71.80786999714388,-38.70061716197959,1452.93 -71.80786889012258,-38.700617806840754,1452.95 -71.8078676670193,-38.70061848114284,1452.96 -71.80786639361416,-38.70061913055386,1453 -71.80786498657166,-38.70061980283163,1453.02 -71.80786351659361,-38.700620538970746,1453.07 -71.80786190449335,-38.70062127980609,1453.08 -71.80786036485156,-38.700622068424636,1453.11 -71.80785870550753,-38.700622847796886,1453.13 -71.8078569498876,-38.700623709922795,1453.15 -71.8078551189945,-38.70062459239903,1453.16 -71.80785318445565,-38.70062548850897,1453.17 -71.8078510758758,-38.70062643953494,1453.2 -71.80784892193348,-38.70062734002049,1453.22 -71.80784659868579,-38.70062824110647,1453.24 -71.80784414167461,-38.700629046654285,1453.28 -71.80784158233747,-38.700629863210374,1453.33 -71.80783904156398,-38.70063068864733,1453.41 -71.8078364341386,-38.70063142741524,1453.47 -71.80783378020075,-38.70063227983412,1453.54 -71.8078310965472,-38.70063313520058,1453.6 -71.8078282564149,-38.70063399202379,1453.64 -71.80782543323112,-38.70063489594825,1453.7 -71.80782254040945,-38.70063574507714,1453.78 -71.80781959715964,-38.7006367338392,1453.83 -71.80781657289467,-38.70063769936879,1453.9 -71.80781344158301,-38.70063868961326,1453.98 -71.80781022835008,-38.70063969882698,1454.04 -71.80780700179967,-38.70064076883895,1454.11 -71.80780367944044,-38.70064184121941,1454.2 -71.80780028447789,-38.70064295969046,1454.26 -71.80779697738288,-38.700644067760216,1454.33 -71.80779361252033,-38.70064525787395,1454.41 -71.80779025202561,-38.70064642116979,1454.47 -71.80778699519271,-38.700647605397684,1454.57 -71.80778373757161,-38.70064885161351,1454.65 -71.8077804825151,-38.700650053944486,1454.73 -71.80777727928042,-38.70065121616763,1454.82 -71.80777402853016,-38.70065238934192,1454.92 -71.80777073909391,-38.70065347690753,1455.02 -71.80776755942777,-38.70065463156748,1455.12 -71.80776438089804,-38.70065574937152,1455.2 -71.80776120363693,-38.70065688212069,1455.31 -71.80775793406225,-38.700657980494746,1455.39 -71.80775463371661,-38.700659236815504,1455.48 -71.80775126221084,-38.70066039235531,1455.57 -71.80774787941985,-38.700661601191676,1455.66 -71.80774453665843,-38.700662901346384,1455.76 -71.8077411365497,-38.700664136822,1455.83 -71.80773773656144,-38.70066540900148,1455.94 -71.80773429215996,-38.700666617334896,1456.02 -71.80773071871042,-38.70066777030494,1456.13 -71.80772713259472,-38.700668969866534,1456.21 -71.8077235399218,-38.70067016237642,1456.3 -71.80771989870549,-38.7006713486731,1456.36 -71.80771631365035,-38.70067248278553,1456.43 -71.80771254557789,-38.70067352608417,1456.53 -71.80770895343367,-38.7006747745475,1456.55 -71.80770537401479,-38.70067610434133,1456.59 -71.8077017133088,-38.70067754817337,1456.58 -71.80769812578886,-38.70067899207017,1456.59 -71.80769450862752,-38.70068043217605,1456.59 -71.80769082058387,-38.70068177207834,1456.62 -71.80768716770008,-38.70068311827895,1456.63 -71.80768345299202,-38.700684328323746,1456.69 -71.80767968756012,-38.700685609924975,1456.74 -71.80767588153365,-38.700686718956796,1456.8 -71.80767209077695,-38.70068786981582,1456.88 -71.80766836265924,-38.700689011723114,1456.93 -71.80766459604429,-38.700690054104484,1457 -71.80766084491135,-38.70069115465836,1457.06 -71.80765706156353,-38.70069221350996,1457.12 -71.80765320537677,-38.70069319206298,1457.2 -71.80764933610729,-38.70069410504233,1457.29 -71.80764545822387,-38.70069505946302,1457.38 -71.8076414817565,-38.700695958856116,1457.48 -71.8076374711885,-38.70069681447436,1457.58 -71.80763343528193,-38.70069763632051,1457.66 -71.80762933470282,-38.700698386288764,1457.77 -71.80762518307742,-38.70069912600025,1457.86 -71.80762099245013,-38.70069981441253,1457.95 -71.80761686689257,-38.70070051021836,1458.05 -71.80761280053424,-38.70070121637377,1458.14 -71.80760869325614,-38.70070193474761,1458.22 -71.80760459988846,-38.70070257268652,1458.3 -71.80760047343034,-38.700703285658555,1458.38 -71.80759636745063,-38.70070397152212,1458.47 -71.80759223376955,-38.700704729922016,1458.56 -71.80758807806117,-38.70070550457256,1458.66 -71.8075838585488,-38.70070638714891,1458.75 -71.80757972744381,-38.70070736094759,1458.83 -71.80757557968519,-38.7007084102092,1458.91 -71.80757151235396,-38.7007094736144,1458.96 -71.80756751377668,-38.700710592298165,1459 -71.80756352594702,-38.70071166068035,1459.07 -71.80755949897753,-38.700712682981404,1459.16 -71.8075554844712,-38.70071357034531,1459.22 -71.80755152668247,-38.70071443617654,1459.32 -71.80754752233277,-38.700715191009664,1459.39 -71.80754347724756,-38.700715900139485,1459.47 -71.80753949087071,-38.700716573342746,1459.53 -71.80753550724526,-38.700717266055904,1459.59 -71.8075314783063,-38.70071797835953,1459.64 -71.80752741042615,-38.70071861599618,1459.7 -71.80752330976077,-38.70071928620553,1459.77 -71.8075191352703,-38.70071993981492,1459.82 -71.80751499325069,-38.70072058136447,1459.88 -71.80751083382142,-38.70072112105759,1459.95 -71.80750656737932,-38.700721670440906,1460 -71.80750225897694,-38.700722184383054,1460.04 -71.80749796489732,-38.70072271794381,1460.09 -71.80749359240154,-38.70072317727822,1460.15 -71.80748920318524,-38.70072371674046,1460.2 -71.80748475648663,-38.70072413953455,1460.26 -71.80748040506256,-38.70072455912513,1460.33 -71.80747604402471,-38.70072497909338,1460.38 -71.8074716298831,-38.70072540212576,1460.44 -71.80746726636708,-38.70072578332203,1460.49 -71.8074629010309,-38.700726178138254,1460.55 -71.8074585354341,-38.70072654005544,1460.6 -71.80745412394238,-38.70072701663686,1460.65 -71.80744972159947,-38.70072740476797,1460.72 -71.80744532854972,-38.70072781217043,1460.78 -71.80744099139808,-38.70072819049685,1460.84 -71.80743660866628,-38.700728592161646,1460.89 -71.80743232795955,-38.70072901483436,1460.95 -71.80742804027176,-38.700729362390845,1460.99 -71.80742369891743,-38.700729693860325,1461.08 -71.8074193584177,-38.700729966449,1461.14 -71.80741506562998,-38.70073028461166,1461.19 -71.80741071955055,-38.70073054980591,1461.25 -71.8074063747724,-38.70073081846889,1461.33 -71.80740198455375,-38.70073109199259,1461.38 -71.80739760308764,-38.70073132443859,1461.42 -71.80739318307202,-38.700731523635156,1461.47 -71.80738882485724,-38.70073174345693,1461.51 -71.80738447306224,-38.70073202958737,1461.56 -71.80738007992883,-38.70073223267307,1461.6 -71.80737565192251,-38.70073245974321,1461.65 -71.80737128876599,-38.70073270858359,1461.69 -71.80736688768035,-38.700732929950185,1461.74 -71.80736254820576,-38.70073331598255,1461.75 -71.8073583079949,-38.700733794857975,1461.73 -71.8073542445907,-38.70073444387956,1461.64 -71.80735014096878,-38.70073509289238,1461.57 -71.80734595223353,-38.7007355962668,1461.5 -71.80734178216645,-38.700736066012844,1461.45 -71.8073374858331,-38.7007364588529,1461.43 -71.80733322191367,-38.70073683268416,1461.41 -71.80732893898694,-38.70073714396092,1461.4 -71.80732463998164,-38.700737356242065,1461.42 -71.80732032766389,-38.700737533345354,1461.44 -71.80731600458115,-38.70073773038748,1461.45 -71.80731176666544,-38.70073794719308,1461.46 -71.80730741393688,-38.70073808930577,1461.5 -71.80730305739567,-38.70073817017835,1461.56 -71.8072986519675,-38.70073829571636,1461.61 -71.8072942064032,-38.7007383685026,1461.68 -71.80728977551207,-38.70073853945264,1461.74 -71.80728535906988,-38.70073870218986,1461.81 -71.80728090958691,-38.7007388588726,1461.87 -71.8072765738996,-38.70073915179482,1461.89 -71.80727224201352,-38.70073946675845,1461.92 -71.80726781930478,-38.700739752156295,1461.95 -71.8072634132979,-38.700740198419204,1461.97 -71.8072588819483,-38.700740498473834,1462.01 -71.80725429244472,-38.700740718924514,1462.1 -71.80724975006177,-38.700741012169196,1462.16 -71.80724515682135,-38.7007411801919,1462.27 -71.80724052269379,-38.70074133583471,1462.39 -71.8072358566148,-38.70074152934711,1462.48 -71.80723130688662,-38.70074170944316,1462.58 -71.80722681134995,-38.700741925778246,1462.65 -71.80722231547794,-38.70074217349413,1462.7 -71.80721781920978,-38.700742401019845,1462.77 -71.8072133693323,-38.70074251757451,1462.84 -71.80720891165342,-38.70074258746037,1462.93 -71.80720444662391,-38.700742666558405,1462.99 -71.80719992802001,-38.700742662004075,1463.09 -71.80719545752663,-38.70074263558019,1463.16 -71.80719102806314,-38.70074264040729,1463.22 -71.80718672650495,-38.7007427212313,1463.23 -71.80718243819877,-38.70074277447455,1463.23 -71.80717815831841,-38.70074280507791,1463.22 -71.8071738829332,-38.70074272391433,1463.23 -71.8071695152862,-38.70074259656038,1463.27 -71.80716506770618,-38.7007422457465,1463.32 -71.80716064590054,-38.70074189700324,1463.36 -71.80715619977768,-38.70074146250637,1463.41 -71.80715178027194,-38.700741054730045,1463.45 -71.80714729018545,-38.70074062865069,1463.51 -71.80714278758056,-38.700740238814106,1463.58 -71.80713822881066,-38.70073983722944,1463.63 -71.80713371759335,-38.70073947597812,1463.7 -71.80712920158075,-38.70073910506951,1463.78 -71.80712454205279,-38.70073882182387,1463.84 -71.80711990297317,-38.70073856767787,1463.91 -71.80711523731902,-38.70073824486788,1464 -71.8071105047785,-38.700737957782096,1464.09 -71.80710576513647,-38.700737748626715,1464.18 -71.80710097585664,-38.70073765229916,1464.26 -71.80709628808587,-38.700737650156505,1464.31 -71.80709173596239,-38.700737724874486,1464.37 -71.80708711220286,-38.70073776708668,1464.42 -71.80708252080247,-38.70073787117915,1464.48 -71.80707791015023,-38.70073793045327,1464.52 -71.80707328304034,-38.70073794809592,1464.57 -71.80706864215064,-38.70073792795523,1464.64 -71.80706408361613,-38.70073792106308,1464.72 -71.80705945452651,-38.700737924397245,1464.78 -71.80705485879601,-38.70073774804874,1464.87 -71.80705024471781,-38.70073751286218,1464.95 -71.80704556816363,-38.70073727673295,1465.03 -71.80704088588817,-38.70073699548658,1465.12 -71.807036199842,-38.70073677205909,1465.19 -71.80703160526426,-38.70073655315689,1465.26 -71.80702694825288,-38.70073633948,1465.34 -71.8070223316924,-38.70073613137466,1465.4 -71.80701774967243,-38.70073597572727,1465.47 -71.80701324335703,-38.70073581821007,1465.55 -71.80700875329752,-38.70073561214672,1465.64 -71.80700422832783,-38.700735411887486,1465.7 -71.8069997657591,-38.7007351235323,1465.77 -71.8069953078985,-38.70073476141878,1465.88 -71.80699089894242,-38.700734338916426,1465.96 -71.8069864826587,-38.70073396183844,1466.05 -71.80698205794393,-38.700733579490496,1466.14 -71.80697767107803,-38.700733288510044,1466.24 -71.80697336142123,-38.700732889233656,1466.34 -71.80696906811285,-38.70073249267371,1466.44 -71.80696483255704,-38.70073205353836,1466.54 -71.80696045565286,-38.70073158019523,1466.65 -71.80695614362234,-38.70073112695889,1466.75 -71.80695179190513,-38.70073073986239,1466.83 -71.80694745194069,-38.700730269821705,1466.91 -71.80694316788484,-38.7007297772467,1467.03 -71.80693874277496,-38.700729314246004,1467.11 -71.80693433761589,-38.700728831223195,1467.2 -71.80692990317154,-38.70072842615563,1467.26 -71.80692544437483,-38.70072813495027,1467.33 -71.80692096578997,-38.70072784605148,1467.38 -71.80691637790697,-38.70072760416715,1467.44 -71.80691179274689,-38.70072744715421,1467.48 -71.806907165778,-38.70072731275263,1467.53 -71.80690255273322,-38.70072719427532,1467.56 -71.8068979072917,-38.70072713294732,1467.58 -71.80689323669186,-38.700727023191384,1467.62 -71.8068885472639,-38.700726915984006,1467.64 -71.80688384443347,-38.70072676181391,1467.68 -71.80687917957489,-38.70072661283932,1467.71 -71.80687450224656,-38.70072642034785,1467.76 -71.80686986270752,-38.70072623698028,1467.79 -71.80686520968176,-38.70072601425156,1467.84 -71.8068605928347,-38.70072575801059,1467.9 -71.80685596049877,-38.70072552064914,1467.95 -71.8068513621137,-38.700725299974515,1468.01 -71.80684679273817,-38.70072509375433,1468.06 -71.8068422476398,-38.70072494662268,1468.12 -71.80683767558928,-38.700724755504815,1468.19 -71.80683307993586,-38.70072452629046,1468.25 -71.8068285576618,-38.700724405199146,1468.32 -71.80682395680726,-38.700724235149494,1468.4 -71.80681933546268,-38.70072406934251,1468.46 -71.80681479073618,-38.70072385988495,1468.53 -71.80681017065037,-38.70072361322082,1468.61 -71.80680562680837,-38.70072342913768,1468.7 -71.806801100932,-38.70072320498428,1468.76 -71.80679658949707,-38.70072299365248,1468.81 -71.80679204252652,-38.70072279353698,1468.87 -71.80678755824955,-38.70072264985706,1468.92 -71.80678307965522,-38.70072246007121,1468.97 -71.80677860460115,-38.70072223054472,1469.04 -71.80677413134941,-38.7007219206371,1469.12 -71.80676965852737,-38.700721637173025,1469.18 -71.80676513826648,-38.700721284060954,1469.25 -71.8067605771609,-38.700720873345865,1469.32 -71.80675602841885,-38.70072041610794,1469.41 -71.80675144387045,-38.7007199223153,1469.5 -71.80674687629771,-38.70071940075157,1469.57 -71.8067422302304,-38.70071881218353,1469.65 -71.80673761212691,-38.70071821721322,1469.74 -71.8067330192046,-38.70071766753393,1469.83 -71.80672844849137,-38.70071715950918,1469.9 -71.80672389697547,-38.70071664213223,1469.97 -71.80671936171993,-38.700716118308925,1470.05 -71.80671488676498,-38.70071563727254,1470.12 -71.80671036854615,-38.70071514680026,1470.16 -71.80670590619668,-38.70071469570309,1470.21 -71.8067014436241,-38.70071423155839,1470.28 -71.80669707322134,-38.70071380315196,1470.32 -71.80669263891646,-38.70071335816848,1470.38 -71.80668814837146,-38.70071285195937,1470.42 -71.80668370295308,-38.700712387662726,1470.48 -71.80667924862553,-38.70071191268966,1470.54 -71.80667483281485,-38.70071138198048,1470.59 -71.80667035526534,-38.700710898172694,1470.65 -71.80666577778939,-38.70071040812683,1470.73 -71.80666125655837,-38.7007099130329,1470.78 -71.80665673743223,-38.700709413963295,1470.85 -71.80665222055703,-38.70070891186444,1470.92 -71.8066477996025,-38.70070840755498,1470.98 -71.8066433193289,-38.700707854909886,1471.05 -71.80663892832315,-38.700707261868786,1471.1 -71.80663456558105,-38.7007066358196,1471.16 -71.80663017834698,-38.70070588983999,1471.23 -71.80662581555312,-38.700705138270884,1471.31 -71.80662147220582,-38.700704385436914,1471.4 -71.8066170970465,-38.700703587823064,1471.5 -71.80661288084681,-38.70070284885076,1471.57 -71.80660861049434,-38.70070206874483,1471.65 -71.80660447862081,-38.7007013026021,1471.71 -71.8066003678651,-38.70070059725866,1471.78 -71.80659631790549,-38.70069989805914,1471.83 -71.80659240914777,-38.70069929825866,1471.89 -71.80658852160005,-38.70069868900305,1471.93 -71.80658459931644,-38.700698211082894,1471.96 -71.80658068918012,-38.70069774933717,1472 -71.80657673826084,-38.70069729845547,1472.03 -71.80657279592495,-38.70069690087629,1472.08 -71.80656890487562,-38.700696498889684,1472.14 -71.8065649608535,-38.70069609017677,1472.18 -71.80656106280529,-38.70069572004206,1472.24 -71.80655710802256,-38.70069533344738,1472.28 -71.80655319675176,-38.700695024144274,1472.34 -71.80654927416875,-38.70069463760166,1472.38 -71.80654529355085,-38.700694323562985,1472.44 -71.80654140318082,-38.700694022478096,1472.51 -71.80653744815329,-38.700693776856916,1472.56 -71.80653348385482,-38.700693528968245,1472.62 -71.8065295113279,-38.70069332322181,1472.67 -71.80652553164413,-38.70069315060006,1472.74 -71.80652154585985,-38.70069300315501,1472.78 -71.80651764862102,-38.70069287402101,1472.84 -71.80651368567997,-38.70069275738669,1472.88 -71.80650971295528,-38.70069264843725,1472.91 -71.80650577872717,-38.70069263691414,1472.96 -71.80650178338456,-38.70069261138306,1473.02 -71.80649778284189,-38.70069261720997,1473.07 -71.80649382521705,-38.700692740110455,1473.13 -71.80648985744197,-38.700692864933146,1473.17 -71.80648588089636,-38.70069298686985,1473.2 -71.80648189692482,-38.70069314921523,1473.22 -71.80647790679886,-38.70069324853355,1473.26 -71.80647391169067,-38.700693384741506,1473.29 -71.80646991265694,-38.70069345617743,1473.33 -71.80646581699266,-38.70069351733703,1473.37 -71.80646173387059,-38.70069352180726,1473.39 -71.8064577099087,-38.70069352441964,1473.43 -71.80645364352519,-38.700693431903,1473.46 -71.80644963531869,-38.700693259313304,1473.51 -71.80644563022119,-38.70069302078082,1473.55 -71.80644162764432,-38.700692729247294,1473.6 -71.80643758023814,-38.700692443128005,1473.67 -71.80643354171602,-38.7006921184196,1473.72 -71.8064295112287,-38.700691857960415,1473.79 -71.80642548785693,-38.70069156134097,1473.84 -71.80642147066064,-38.700691236188305,1473.91 -71.80641745871674,-38.70069084242386,1473.96 -71.80641345114697,-38.700690346430406,1474.02 -71.80640940031846,-38.70068986108564,1474.06 -71.80640535967682,-38.70068934222832,1474.13 -71.80640128130672,-38.70068875194471,1474.2 -71.80639721824879,-38.700688245622864,1474.25 -71.80639312210442,-38.70068767393187,1474.35 -71.80638899856983,-38.70068709648508,1474.42 -71.80638485289012,-38.700686517389144,1474.51 -71.80638078342604,-38.700685939796976,1474.57 -71.80637668597726,-38.70068527239526,1474.64 -71.80637265866712,-38.70068457834997,1474.7 -71.80636859732739,-38.70068386517117,1474.76 -71.80636455349664,-38.70068313918456,1474.84 -71.8063604307488,-38.700682358784434,1474.92 -71.8063562880175,-38.700681535528226,1475.01 -71.80635212939113,-38.70068072643539,1475.11 -71.80634791168465,-38.700679932965436,1475.21 -71.8063437390649,-38.70067915567601,1475.28 -71.8063395127893,-38.70067839442554,1475.36 -71.8063353359869,-38.70067764855028,1475.42 -71.80633115579943,-38.70067696383485,1475.49 -71.8063269735298,-38.700676284818734,1475.54 -71.80632283705141,-38.70067561052771,1475.6 -71.806318693012,-38.70067489324443,1475.64 -71.80631458930608,-38.70067418634153,1475.67 -71.80631047278688,-38.70067339502305,1475.71 -71.80630639168612,-38.70067262646131,1475.77 -71.80630229328202,-38.70067187859268,1475.83 -71.80629817946368,-38.70067105550507,1475.88 -71.80629405219048,-38.70067021639115,1475.95 -71.80628991340669,-38.7006693653971,1475.99 -71.8062858117966,-38.70066850606096,1476.02 -71.80628174173745,-38.70066764133947,1476.07 -71.80627769789498,-38.7006667268296,1476.11 -71.80627367533766,-38.70066581863839,1476.15 -71.80626971642772,-38.70066491781002,1476.22 -71.8062657162195,-38.70066397805701,1476.27 -71.80626172591795,-38.700662960050764,1476.33 -71.8062576959285,-38.700661971531,1476.4 -71.80625367809391,-38.70066096380917,1476.48 -71.80624967004123,-38.70065998869961,1476.55 -71.80624566964197,-38.70065904309743,1476.62 -71.80624176866367,-38.70065812363736,1476.7 -71.80623776349219,-38.700657180055806,1476.77 -71.80623385565718,-38.700656263150655,1476.84 -71.80622885909875,-38.700655181981325,1476.92 -71.80622406697904,-38.70065410289825,1477.01 -71.80621941544723,-38.700653028134305,1477.08 -71.80621493933873,-38.700651959222654,1477.15 -71.8062106646089,-38.700650943934704,1477.24 -71.80620646916107,-38.70064992856933,1477.33 -71.8062024339028,-38.700648866860305,1477.39 -71.8061984385609,-38.70064781339057,1477.47 -71.80619447314682,-38.700646767988665,1477.55 -71.80619057591056,-38.700645730245185,1477.64 -71.80618673228712,-38.700644652766634,1477.73 -71.8061829762541,-38.70064358905667,1477.8 -71.8061792425328,-38.70064253793825,1477.88 -71.80617547535212,-38.70064145126792,1477.93 -71.80617172168252,-38.70064033501982,1478 -71.80616797543115,-38.70063924154345,1478.04 -71.80616427856641,-38.700638074841294,1478.1 -71.8061605731599,-38.700636893972366,1478.17 -71.8061569036906,-38.700635702917545,1478.22 -71.80615218457382,-38.700634083661235,1478.31 -71.80614760765499,-38.700632432976796,1478.37 -71.80614316375124,-38.70063081065337,1478.45 -71.8061388413208,-38.70062917292636,1478.53 -71.80613462744472,-38.700627481552104,1478.59 -71.8061294785985,-38.70062532922561,1478.69 -71.80612462013886,-38.700623262388184,1478.77 -71.80612002196692,-38.70062118604165,1478.85 -71.80611560553528,-38.70061915778551,1478.91 -71.80611036315567,-38.70061661651141,1479.01 -71.80610545556281,-38.70061421125951,1479.08 -71.80610093707139,-38.700611887374684,1479.16 -71.80609670623117,-38.700609641861995,1479.22 -71.80609267078935,-38.70060746974204,1479.29 -71.8060887954491,-38.70060531789348,1479.34 -71.80608509486184,-38.700603233418285,1479.4 -71.80608148615339,-38.700601208452085,1479.44 -71.80607696149472,-38.70059867317302,1479.49 -71.80607263782123,-38.70059622314,1479.53 -71.8060684884707,-38.70059394663381,1479.58 -71.8060645341096,-38.70059177529506,1479.62 -71.80606069569515,-38.700589741790665,1479.67 -71.80605699746663,-38.70058782492787,1479.71 -71.80605341179674,-38.7005859578615,1479.73 -71.80604996076944,-38.70058422314177,1479.77 -71.8060464748685,-38.70058254951969,1479.8 -71.80604304425107,-38.70058092219551,1479.82 -71.80603857606275,-38.70057886021601,1479.86 -71.80603425624963,-38.700576941441675,1479.88 -71.80603011778611,-38.70057519198014,1479.9 -71.80602613819994,-38.70057353778206,1479.94 -71.80602220139572,-38.70057200756912,1479.96 -71.80601834725357,-38.70057057765554,1479.98 -71.80601451511531,-38.7005691798844,1480.02 -71.8060106995224,-38.70056784961133,1480.05 -71.80600586576956,-38.70056624238074,1480.1 -71.80600129556954,-38.7005648167404,1480.13 -71.80599682075004,-38.70056344912989,1480.16 -71.80599252795766,-38.70056222009139,1480.21 -71.8059883004871,-38.700561056646016,1480.24 -71.80598413015697,-38.70055994253388,1480.26 -71.80598005563449,-38.700558910603654,1480.28 -71.80597601489067,-38.70055794173233,1480.32 -71.80597200102471,-38.700557019314715,1480.35 -71.80596800790126,-38.70055612922028,1480.39 -71.80596407699392,-38.700555259674644,1480.43 -71.8059601495558,-38.700554447907365,1480.45 -71.80595622221284,-38.70055363212644,1480.5 -71.8059522924183,-38.70055285374113,1480.54 -71.80594831151863,-38.70055214845582,1480.59 -71.80594437928144,-38.70055149961563,1480.63 -71.8059403935238,-38.70055084588664,1480.66 -71.80593636113882,-38.700550229053825,1480.71 -71.80593228894195,-38.700549638303244,1480.74 -71.80592827709124,-38.70054911139626,1480.77 -71.80592417647341,-38.70054858673113,1480.81 -71.80592009449737,-38.70054810564327,1480.85 -71.80591602942074,-38.700547656747844,1480.9 -71.8059118857054,-38.70054723034476,1480.94 -71.80590767612571,-38.70054677152189,1480.97 -71.80590350623645,-38.70054628104228,1481.01 -71.80589932534761,-38.70054585421833,1481.05 -71.80589518347993,-38.70054543180695,1481.07 -71.80589102913507,-38.70054501002724,1481.09 -71.80588681813785,-38.7005446328261,1481.13 -71.80588265382441,-38.70054424393356,1481.15 -71.8058784835895,-38.700543889188104,1481.2 -71.80587430901477,-38.70054351410796,1481.23 -71.80587013144327,-38.70054307254198,1481.26 -71.80586595199148,-38.70054257304041,1481.28 -71.8058617715663,-38.7005420240606,1481.29 -71.80585759088518,-38.70054138687727,1481.32 -71.80585341049786,-38.70054067639265,1481.34 -71.8058492776274,-38.70053985956705,1481.39 -71.80584518519038,-38.70053900303742,1481.42 -71.80584112644294,-38.70053811738384,1481.45 -71.80583704831257,-38.700537117955406,1481.49 -71.80583285885845,-38.7005361205915,1481.53 -71.8058286215207,-38.700535083661585,1481.55 -71.80582439157261,-38.70053397136982,1481.6 -71.80582021621157,-38.70053284719965,1481.63 -71.8058161349081,-38.70053176520657,1481.66 -71.80581203948066,-38.70053063000512,1481.7 -71.80580793093227,-38.70052954723944,1481.73 -71.80580385729364,-38.700528465844286,1481.76 -71.80579985934683,-38.70052748194686,1481.8 -71.80579597099346,-38.70052653574293,1481.84 -71.80579203249556,-38.700525621872835,1481.86 -71.80578800145496,-38.70052464153564,1481.88 -71.8057838901559,-38.70052365144237,1481.91 -71.80577980428353,-38.70052270046968,1481.97 -71.80577569374157,-38.70052173625329,1482.01 -71.80577156265412,-38.700520854448676,1482.04 -71.80576741484354,-38.70051994860105,1482.07 -71.80576325377196,-38.700519068178515,1482.11 -71.8057590825097,-38.70051825537609,1482.14 -71.80575495054406,-38.7005175454408,1482.19 -71.80575071232713,-38.70051682670141,1482.23 -71.80574652538158,-38.70051614416451,1482.29 -71.80574228993981,-38.700515536287675,1482.33 -71.805738108179,-38.70051503525614,1482.39 -71.80573402001498,-38.70051457377133,1482.43 -71.80573001125573,-38.700514187578776,1482.47 -71.80572602162648,-38.70051385997844,1482.49 -71.80572204605757,-38.70051357634674,1482.5 -71.80571803342016,-38.70051327731427,1482.54 -71.80571408112849,-38.70051300651197,1482.56 -71.80571013163876,-38.70051270799946,1482.58 -71.80570622932593,-38.70051242842001,1482.59 -71.80570227133354,-38.70051211442687,1482.62 -71.80569835775981,-38.70051176803232,1482.65 -71.8056944336373,-38.70051139187851,1482.66 -71.80569054574674,-38.700510988990644,1482.67 -71.80568668706309,-38.70051051575873,1482.7 -71.80568280445755,-38.700509982782556,1482.73 -71.80567899338013,-38.7005094001273,1482.75 -71.80567519441806,-38.700508730286636,1482.79 -71.80567140339505,-38.700507989046315,1482.82 -71.80566761688723,-38.700507143966604,1482.87 -71.80566387897575,-38.70050616841201,1482.91 -71.80566027380901,-38.700505134685194,1482.96 -71.80565673132892,-38.70050396464073,1483.01 -71.80565323757831,-38.700502779804864,1483.04 -71.80564973352477,-38.70050154341926,1483.09 -71.80564630969518,-38.700500317414836,1483.1 -71.80564285584467,-38.700499013447015,1483.14 -71.80563946561082,-38.70049769650823,1483.16 -71.80563607848941,-38.70049628137273,1483.2 -71.80563273661295,-38.700494836086655,1483.24 -71.80562938232063,-38.700493371960626,1483.26 -71.80562615406546,-38.700491851356134,1483.3 -71.80562288828943,-38.700490288892865,1483.34 -71.80561963291413,-38.700488697045095,1483.36 -71.80561642949056,-38.700487086236606,1483.4 -71.80561326650553,-38.700485464983515,1483.44 -71.80561013387585,-38.70048384006812,1483.46 -71.80560711658426,-38.7004822635491,1483.5 -71.80560409898717,-38.700480638319824,1483.54 -71.80560107598278,-38.700479021751825,1483.56 -71.80559799709411,-38.70047736894221,1483.58 -71.80559486724239,-38.70047578196968,1483.61 -71.8055916919072,-38.700474112978085,1483.64 -71.80558842997985,-38.70047251690854,1483.69 -71.80558518814776,-38.70047098493335,1483.72 -71.8055819640742,-38.7004695081721,1483.78 -71.80557870856208,-38.70046812483201,1483.82 -71.80557547346734,-38.7004668194391,1483.85 -71.80557220932108,-38.70046557762181,1483.87 -71.80556892087252,-38.70046438633874,1483.91 -71.80556565936462,-38.70046332764185,1483.95 -71.80556246827766,-38.70046242353606,1483.97 -71.80555924327354,-38.70046164420947,1484.01 -71.80555594212106,-38.700460962855956,1484.04 -71.80555257666099,-38.700460402685046,1484.06 -71.80554920487131,-38.70045988913424,1484.08 -71.80554578282693,-38.70045949904663,1484.11 -71.80554236701136,-38.70045920399854,1484.14 -71.80553895875568,-38.7004589792631,1484.19 -71.80553546516293,-38.70045885057784,1484.22 -71.80553194804999,-38.70045879297765,1484.25 -71.8055285074393,-38.70045892563144,1484.27 -71.8055250871921,-38.700459115033226,1484.28 -71.80552173213255,-38.70045934063481,1484.28 -71.80551829229844,-38.70045958568944,1484.31 -71.8055148275012,-38.70045993053539,1484.34 -71.80551129584488,-38.70046039702467,1484.38 -71.80550770910038,-38.70046086273656,1484.41 -71.80550431214846,-38.70046145793363,1484.47 -71.80550098420125,-38.70046205958288,1484.51 -71.80549771387197,-38.700462750415376,1484.56 -71.8054944437572,-38.70046350763632,1484.61 -71.80549135888424,-38.70046431175706,1484.67 -71.80548833453551,-38.70046519327684,1484.72 -71.80548540347542,-38.700466178286675,1484.76 -71.80548249931279,-38.7004671481917,1484.81 -71.80547979937317,-38.700468236636034,1484.85 -71.80547721929302,-38.70046937033483,1484.85 -71.80547487280263,-38.700470486685,1484.84 -71.8054726207913,-38.700471580128614,1484.86 -71.80547057763224,-38.700472694090436,1484.87 -71.80546874601522,-38.70047372592361,1484.88 -71.80546717322828,-38.700474776802864,1484.88 -71.80546575704857,-38.70047574663455,1484.91 -71.80546459646752,-38.700476644842695,1484.93 -71.80546368095648,-38.7004775278376,1484.94 -71.8054630934937,-38.70047821036419,1484.95 -71.80546276214449,-38.70047881749716,1484.96 -71.80546253015093,-38.70047941089552,1484.96 -71.80546240477636,-38.700479949666146,1484.99 -71.80546234676245,-38.70048044591107,1484.98 -71.80546237099524,-38.700480816592055,1484.97 -71.80546244480895,-38.70048108553577,1484.96 -71.80546249503878,-38.70048127423636,1484.95 -71.80546260201962,-38.70048135486431,1484.95 -71.80546274227672,-38.70048139804421,1484.94 -71.805462803321,-38.70048141728375,1484.9 -71.80546278516893,-38.70048137677776,1484.87 -71.8054627374022,-38.70048133946031,1484.85 -71.80546270421294,-38.7004813116306,1484.83 -71.80546258373904,-38.700481297707555,1484.81 -71.80546247792589,-38.70048130053929,1484.8 -71.80546228741302,-38.70048132169086,1484.79 -71.80546202230401,-38.7004814085247,1484.81 -71.80546164598682,-38.70048155343156,1484.83 -71.80546117575562,-38.700481748658625,1484.82 -71.80546062790857,-38.70048198661415,1484.81 -71.805460017427,-38.700482213272515,1484.8 -71.80545931096037,-38.700482476150356,1484.8 -71.80545848091387,-38.70048272195895,1484.79 -71.80545745817078,-38.700482905333054,1484.79 -71.80545641984024,-38.70048312891247,1484.79 -71.80545537687898,-38.700483339792015,1484.79 -71.80545433770719,-38.70048353956274,1484.79 -71.80545321490271,-38.70048372980979,1484.79 -71.80545202753133,-38.70048386523991,1484.79 -71.80545079220745,-38.70048395464482,1484.79 -71.80544956993955,-38.70048400625026,1484.79 -71.80544822477587,-38.70048407438857,1484.82 -71.80544682841304,-38.700484064773605,1484.84 -71.80544544246334,-38.700484037911664,1484.86 -71.80544402515979,-38.70048399898156,1484.88 -71.80544254031854,-38.7004839523063,1484.92 -71.80544100403986,-38.7004838077758,1484.96 -71.80543947706566,-38.700483723380266,1485.01 -71.8054379638303,-38.700483552577836,1485.06 -71.8054364671993,-38.70048340463382,1485.09 -71.8054349419372,-38.700483185420964,1485.12 -71.80543348960765,-38.70048300215907,1485.14 -71.80543196171988,-38.700482758724256,1485.15 -71.80543032523657,-38.70048241998917,1485.19 -71.80542864687477,-38.700482050633596,1485.22 -71.80542689053155,-38.70048165944683,1485.24 -71.80542507273094,-38.700481160174746,1485.25 -71.80542325488226,-38.70048071406954,1485.26 -71.805421301791,-38.70048022410917,1485.29 -71.80541900524,-38.70047965392252,1485.32 -71.80541661262924,-38.700479160366115,1485.34 -71.80541414966576,-38.70047873592734,1485.38 -71.80541163817126,-38.70047837254269,1485.41 -71.80540909628067,-38.70047806201342,1485.43 -71.80540644508221,-38.70047770268574,1485.45 -71.80540385140529,-38.700477395325464,1485.46 -71.80540122228084,-38.700477038387355,1485.49 -71.80539866455767,-38.70047673274613,1485.52 -71.80539622105783,-38.700476423780835,1485.54 -71.80539392588253,-38.70047615828243,1485.55 -71.805391711737,-38.70047592898238,1485.56 -71.80538965974783,-38.700475822782224,1485.56 -71.80538783701435,-38.70047577203417,1485.56 -71.80538620409378,-38.70047581166811,1485.56 -71.8053847246615,-38.70047592384514,1485.56 -71.80538345964275,-38.70047604577974,1485.55 -71.80538241227505,-38.70047621765398,1485.55 -71.80538153640929,-38.70047638017374,1485.57 -71.80538083812036,-38.7004765299978,1485.59 -71.80538032160874,-38.7004767118673,1485.6 -71.80537984905932,-38.700476823727364,1485.61 -71.8053794439385,-38.700476919959165,1485.62 -71.80537917420102,-38.700477094705924,1485.63 -71.80537900430896,-38.700477287327125,1485.63 -71.8053788571869,-38.70047749252098,1485.63 -71.80537871497408,-38.70047761221648,1485.63 -71.80537851721745,-38.700477657516906,1485.63 -71.80537830812513,-38.70047773301357,1485.63 -71.80537812720377,-38.70047788125779,1485.62 -71.80537786858717,-38.700477997130385,1485.62 -71.80537753723152,-38.700478084576616,1485.62 -71.80537723303684,-38.7004782411955,1485.62 -71.80537680784782,-38.70047836245711,1485.64 -71.80537632409586,-38.70047849967347,1485.66 -71.80537578984578,-38.70047864993954,1485.68 -71.80537521293074,-38.700478810612275,1485.69 -71.80537450709937,-38.70047888570005,1485.7 -71.80537388114833,-38.70047902833339,1485.71 -71.80537318511793,-38.700479228506445,1485.72 -71.8053724314922,-38.700479429859456,1485.72 -71.80537158486317,-38.70047963089731,1485.75 -71.80537070961925,-38.700479830503916,1485.78 -71.8053696738038,-38.70048007470657,1485.79 -71.80536869389014,-38.70048035562183,1485.81 -71.80536757971926,-38.700480619213145,1485.82 -71.80536649718861,-38.700480960017124,1485.83 -71.80536544716324,-38.70048136455394,1485.83 -71.80536428870964,-38.7004818672678,1485.83 -71.80536304244775,-38.700482402864054,1485.86 -71.80536191424632,-38.70048296201136,1485.86 -71.80536075061265,-38.700483677314395,1485.82 -71.80535960698316,-38.70048442657949,1485.82 -71.80535848342126,-38.70048529221497,1485.82 -71.80535728563999,-38.70048615660079,1485.85 -71.80535616766012,-38.70048705999691,1485.87 -71.8053551665402,-38.70048794354748,1485.88 -71.80535431194527,-38.70048866414928,1485.9 -71.8053536269368,-38.70048924268014,1485.91 -71.8053530351597,-38.700489793449876,1485.94 -71.80535256366805,-38.70049022789185,1485.97 -71.8053522344665,-38.70049051852566,1485.99 -71.80535201817008,-38.70049064384231,1486.01 -71.80535188870691,-38.7004905875811,1486.02 -71.80535191704578,-38.70049038482123,1486.03 -71.80535202232338,-38.70048997345588,1486.04 -71.80535213512346,-38.70048944279302,1486.04 -71.80535233752633,-38.70048882326673,1486.04 -71.80535265305102,-38.700488140904824,1486.04 -71.80535296082934,-38.70048737069081,1486.04 -71.80535339253622,-38.70048649102968,1486.01 -71.80535396685303,-38.70048548365563,1486.01 -71.80535460505976,-38.700484520722426,1486.01 -71.80535528662789,-38.70048370100443,1486.01 -71.80535594775795,-38.700482871467415,1485.98 -71.80535667573523,-38.700482180641714,1485.98 -71.8053574051548,-38.700481612582294,1485.99 -71.80535808087518,-38.70048105736817,1485.99 -71.80535879786333,-38.70048060739238,1485.99 -71.80535945057433,-38.70048024658594,1486 -71.80535999692162,-38.70047991292011,1486 -71.8053605903611,-38.700479646543755,1486</coordinates>
      </LineString>
    </Placemark>
  </Document>
</kml>
